[Satellite]
VERSION=1.1
NAME=MOLNIYA 1-29
NICKNAME=MOLNIYA 1-29
TLE1=1 07780U 75036A   20157.47394021 -.00000329  00000-0 -76484-3 0  9996
TLE2=2 07780  62.9751 313.2785 7372821 288.2275   9.2809  2.00621696330733
STATUS=0
